ONEWEB-0388             
1 49314U 21090AM  25227.94198443  .00000002  00000+0 -28494-4 0  9996
2 49314  87.9253   5.6634 0001983  97.6060 262.5298 13.19724210186155
2021-091B               
1 49316U 21091B   25227.91319777  .00002639  00000+0  13315-3 0  9993
2 49316  97.4516  55.1851 0011642 352.8993   7.2074 15.17947183212668
SHIJIAN-21 (SJ-21)      
1 49330U 21094A   25227.91940340 -.00000355  00000+0  00000+0 0  9995
2 49330   4.4163  62.9143 0055622 163.7307 195.6912  1.00284328  2262
SES-17                  
1 49332U 21095A   25227.80970582 -.00000274  00000+0  00000+0 0  9997
2 49332   0.0128  70.0955 0001043  89.5304  29.2104  1.00268737 14790
SYRACUSE 4A             
1 49333U 21095B   25227.83198778  .00000132  00000+0  00000+0 0  9992
2 49333   0.0111 132.4131 0001961  10.5891 166.4866  1.00272402 14890
QZS-1R (MICHIBIKI-1R)   
1 49336U 21096A   25227.53309491 -.00000275  00000+0  00000+0 0  9998
2 49336  36.8227  84.1318 0742025 269.2546 295.9276  1.00297025 13947
JILIN-1 GAOFEN 2F       
1 49338U 21097A   25227.90714811  .00004032  29150-8  28859-3 0  9994
2 49338  97.6344 351.2977 0019965 182.7416 177.3704 15.04321140210367
YAOGAN-32 02A           
1 49383U 21099A   25227.90861295  .00000811  00000+0  16606-3 0  9997
2 49383  98.2512 356.1466 0001637  99.9390 260.1997 14.63438151201703
YAOGAN-32 02B           
1 49384U 21099B   25227.90851001  .00000789  00000+0  16174-3 0  9996
2 49384  98.2527 356.3660 0001378  96.1865 263.9494 14.63440340201702
SDGSAT 1                
1 49387U 21100A   25227.88017330  .00002781  00000+0  13505-3 0  9997
2 49387  97.3100 280.4506 0006962 279.9781  80.0668 15.19250486209554
YAOGAN-35 01A           
1 49390U 21101A   25227.82812706  .00007077  00000+0  31931-3 0  9992
2 49390  34.9916  38.4232 0004775 126.1441 233.9715 15.20305812210272
YAOGAN-35 01C           
1 49393U 21101D   25227.81635372  .00009388  00000+0  38559-3 0  9996
2 49393  35.0034  25.3478 0014139 157.5004 202.6333 15.23356674210424
TEIKYOSAT-4 (OORURI)    
1 49396U 21102B   25227.51386779  .00002323  00000+0  15525-3 0  9991
2 49396  97.4063 263.5211 0010863 262.7821  97.2172 15.07886375206633
RAISE 2                 
1 49397U 21102C   25227.83610005  .00005125  00000+0  26540-3 0  9991
2 49397  97.3669 264.2287 0007871 270.7121  89.3211 15.16614590207076
Z-SAT                   
1 49399U 21102E   25227.87178891  .00003644  00000+0  19862-3 0  9992
2 49399  97.3758 267.3871 0016721 226.5691 133.4150 15.14895429207168
HIBARI                  
1 49400U 21102F   25227.57387582  .00006803  00000+0  28356-3 0  9999
2 49400  97.3719 272.7848 0013597 196.5032 163.5764 15.23939652207527
DRUMS                   
1 49401U 21102G   25227.86279759  .00004504  00000+0  23448-3 0  9991
2 49401  97.3737 268.3956 0015727 213.8909 146.1321 15.16412553207245
KOSEN-1                 
1 49402U 21102H   25227.59216709  .00006273  00000+0  28457-3 0  9998
2 49402  97.3659 271.0485 0015232 198.1617 161.9076 15.21066370207474
STARLINK-3151           
1 49408U 21104A   25227.57378607  .00000493  00000+0  49051-4 0  9992
2 49408  53.2180  74.4399 0001410  90.9891 269.1262 15.08838756207518
STARLINK-3075           
1 49409U 21104B   25225.99778106 -.00000280  00000+0  48080-6 0  9993
2 49409  53.2175  81.4902 0001387  86.9069 273.2082 15.08842701207281
STARLINK-3147           
1 49410U 21104C   25227.84610202  .00000039  00000+0  20530-4 0  9992
2 49410  53.2173  73.1992 0001381  90.8875 269.2276 15.08841275207556
STARLINK-3162           
1 49411U 21104D   25227.83870740 -.00000351  00000+0 -39820-5 0  9999
2 49411  53.2180  63.2243 0001347  90.8482 269.2664 15.08833341207691
STARLINK-3157           
1 49413U 21104F   25227.83598239 -.00000862  00000+0 -36048-4 0  9996
2 49413  53.2177  63.2462 0001400  90.5505 269.5648 15.08836592207691
STARLINK-3146           
1 49414U 21104G   25227.84146428 -.00000210  00000+0  48803-5 0  9996
2 49414  53.2171  73.2087 0001399  89.4804 270.6349 15.08838630207557
STARLINK-3159           
1 49415U 21104H   25227.83134161 -.00000648  00000+0 -22604-4 0  9993
2 49415  53.2177  63.2577 0001418  91.6359 268.4796 15.08839897207680
STARLINK-3133           
1 49416U 21104J   25227.83410391  .00000137  00000+0  26726-4 0  9996
2 49416  53.2181  73.2412 0001431  89.4800 270.6356 15.08838588207555
STARLINK-3154           
1 49417U 21104K   25227.92698806 -.00000066  00000+0  13922-4 0  9992
2 49417  53.2178  62.4804 0001247  87.2377 272.8758 15.08833877207700
STARLINK-3111           
1 49418U 21104L   25227.89666731 -.00000051  00000+0  14866-4 0  9993
2 49418  53.2177  72.9600 0001286  93.2210 266.8930 15.08836941207559
STARLINK-3120           
1 49419U 21104M   25227.88562952 -.00000693  00000+0 -25456-4 0  9993
2 49419  53.2166  73.0102 0001408  86.7251 273.3902 15.08835418207555
STARLINK-3110           
1 49420U 21104N   25227.89298780  .00000905  00000+0  74971-4 0  9991
2 49420  53.2185  72.9777 0001409  86.0891 274.0262 15.08838484207551
STARLINK-3112           
1 49421U 21104P   25227.85984476  .00000615  00000+0  56698-4 0  9996
2 49421  53.2176  72.9355 0001606  86.7089 273.4087 15.08850019207555
STARLINK-3161           
1 49422U 21104Q   25226.99237639  .00000593  00000+0  55369-4 0  9992
2 49422  53.2172  77.3417 0001368  88.4433 271.6716 15.08844716208521
STARLINK-3149           
1 49423U 21104R   25227.88933243 -.00000175  00000+0  71050-5 0  9999
2 49423  53.2174  73.1860 0001398  88.0635 272.0517 15.08835158207559
STARLINK-3135           
1 49424U 21104S   25227.88194801  .00000038  00000+0  20455-4 0  9998
2 49424  53.2172  73.0285 0001280  95.3876 264.7263 15.08834366207552
STARLINK-3139           
1 49425U 21104T   25227.86818412 -.00000440  00000+0 -95254-5 0  9997
2 49425  53.2182  73.1026 0001471  92.2964 267.8196 15.08835772207566
STARLINK-3114           
1 49426U 21104U   25227.94082831 -.00000151  00000+0  85808-5 0  9997
2 49426  53.2186  72.7659 0001574 102.9125 257.2043 15.08836908207566
STARLINK-3131           
1 49427U 21104V   25227.86450215 -.00000029  00000+0  16261-4 0  9994
2 49427  53.2176  73.1198 0001365  88.1113 272.0036 15.08838173207562
STARLINK-3121           
1 49428U 21104W   25227.84513679 -.00000206  00000+0  51434-5 0  9996
2 49428  53.2172  73.1083 0001405  82.5065 277.6086 15.08842213207567
STARLINK-3138           
1 49430U 21104Y   25227.88661516  .00000234  00000+0  32765-4 0  9992
2 49430  53.2166  73.2854 0001307  87.9034 272.2108 15.08839154207562
STARLINK-3153           
1 49431U 21104Z   25227.83780941 -.00000347  00000+0 -37350-5 0  9995
2 49431  53.2174  73.4090 0001386  85.3728 274.7423 15.08834658207555
STARLINK-3158           
1 49432U 21104AA  25227.55998061 -.00000191  00000+0  60800-5 0  9991
2 49432  53.2177  64.4751 0001395  89.5696 270.5456 15.08836556208733
STARLINK-3079           
1 49433U 21104AB  25227.55994658  .00000288  00000+0  36210-4 0  9993
2 49433  53.2171  54.4735 0001301  85.0423 275.0718 15.08836870208881
STARLINK-3134           
1 49434U 21104AC  25227.87092708 -.00000309  00000+0 -13552-5 0  9995
2 49434  53.2165  73.2312 0001262  88.7169 271.3968 15.08832412208646
STARLINK-3117           
1 49435U 21104AD  25227.89578315 -.00000369  00000+0 -50812-5 0  9997
2 49435  53.2176  52.9658 0001248  88.3466 271.7669 15.08838590207842
STARLINK-3049           
1 49436U 21104AE  25227.23242794 -.00000314  00000+0 -16490-5 0  9999
2 49436  53.2182  55.9443 0001412  88.8668 271.2486 15.08833764207746
STARLINK-3130           
1 49437U 21104AF  25227.82122995 -.00000667  00000+0 -23827-4 0  9997
2 49437  53.2165  53.2995 0001271  81.7094 278.4042 15.08831823207830
STARLINK-3044           
1 49438U 21104AG  25227.81113981 -.00001390  00000+0 -69311-4 0  9994
2 49438  53.2172  53.2805 0001333  87.2021 272.9123 15.08829276207837
STARLINK-3105           
1 49440U 21104AJ  25227.81386961  .00000034  00000+0  20211-4 0  9995
2 49440  53.2176  53.3350 0001238  85.4145 274.6988 15.08832635207832
STARLINK-3128           
1 49441U 21104AK  25227.79546119  .00000595  00000+0  55471-4 0  9994
2 49441  53.2137  53.4145 0001434  88.7120 271.4037 15.08840108207834
STARLINK-3098           
1 49442U 21104AL  25227.94266743 -.00000439  00000+0 -95264-5 0  9998
2 49442  53.2184  52.7582 0000446  65.7229 294.3809 15.08833822207859
STARLINK-3136           
1 49443U 21104AM  25227.92425825  .00000274  00000+0  35315-4 0  9990
2 49443  53.2171  52.8360 0001271  88.0771 272.0367 15.08842914207852
STARLINK-3126           
1 49444U 21104AN  25227.80746070 -.00000207  00000+0  50832-5 0  9995
2 49444  53.2179  53.3739 0001204  85.0896 275.0234 15.08839549207832
STARLINK-3122           
1 49445U 21104AP  25227.26194963  .00000407  00000+0  43637-4 0  9999
2 49445  53.2186  66.2094 0001395  89.8228 270.2924 15.08838006207605
STARLINK-3099           
1 49446U 21104AQ  25227.80282804 -.00000654  00000+0 -22985-4 0  9991
2 49446  53.2190  53.3849 0001498  93.0549 267.0615 15.08833656207835
STARLINK-3115           
1 49447U 21104AR  25227.81294717 -.00000260  00000+0  17696-5 0  9995
2 49447  53.2176  63.3372 0001352  84.8349 275.2797 15.08835138207690
STARLINK-3137           
1 49449U 21104AT  25227.80285749 -.00001253  00000+0 -60684-4 0  9999
2 49449  53.2194  63.3277 0001105 104.1220 255.9895 15.08835416207699
STARLINK-3127           
1 49450U 21104AU  25227.82030918 -.00000125  00000+0  10210-4 0  9995
2 49450  53.2174  63.3432 0001224 112.4228 247.6894 15.08838593207959
STARLINK-3125           
1 49451U 21104AV  25227.80558575  .00000040  00000+0  20581-4 0  9995
2 49451  53.2174  63.3697 0001374  88.1986 271.9163 15.08837498207692
STARLINK-3150           
1 49452U 21104AW  25227.92799063 -.00000444  00000+0 -98360-5 0  9999
2 49452  53.2171  62.8596 0001300  87.8753 272.2388 15.08835942207717
